NORAD_CAT_ID,OBJECT_NAME,OBJECT_TYPE,EPOCH,MEAN_MOTION,ECCENTRICITY,INCLINATION,RA_OF_ASC_NODE,ARG_OF_PERICENTER,MEAN_ANOMALY,BSTAR,MEAN_MOTION_DOT,MEAN_MOTION_DDOT,TLE_LINE0,TLE_LINE1,TLE_LINE2,SEMIMAJOR_AXIS,PERIOD,APOGEE,PERIGEE,DECAYED
52838.0,STARLINK-4092,PAYLOAD,2022-07-03 22:00:00,15.7319538,0.0001437,53.2153,323.7612,30.8923,223.3635,0.00033753,0.00047006,0.0,0 STARLINK-4092,1 52838U 22062J   22184.91667824  .00047006  00000-0  33753-3 0  9999,2 52838  53.2153 323.7612 0001437  30.8923 223.3635 15.73195380  3088,6727.908,91.533,350.74,348.807,0.0
52838.0,STARLINK-4092,PAYLOAD,2022-07-04 14:00:01,15.73207483,0.0001644,53.2158,320.4616,41.841,30.3031,-0.00015349,-0.00022113,0.0,0 STARLINK-4092,1 52838U 22062J   22185.58334491 -.00022113  00000-0 -15349-3 0  9999,2 52838  53.2158 320.4616 0001644  41.8410  30.3031 15.73207483  1301,6727.874,91.533,350.845,348.6330000000001,0.0
52838.0,STARLINK-4092,PAYLOAD,2022-07-04 22:00:00,15.73224787,0.0001745,53.2151,318.8125,37.2926,123.7993,0.00028902,0.0004018,0.0,0 STARLINK-4092,1 52838U 22062J   22185.91667824  .00040180  00000-0  28902-3 0  9996,2 52838  53.2151 318.8125 0001745  37.2926 123.7993 15.73224787  1303,6727.825,91.532,350.86400000000015,348.516,0.0
52838.0,STARLINK-4092,PAYLOAD,2022-07-05 14:00:01,15.73311382,0.0001629,53.2152,315.513,36.9918,302.0420000000001,-0.00088522,-0.00123639,0.0,0 STARLINK-4092,1 52838U 22062J   22186.58334491 -.00123639  00000-0 -88522-3 0  9998,2 52838  53.2152 315.5130 0001629  36.9918 302.0420 15.73311382  3343,6727.578,91.527,350.539,348.347,0.0
52838.0,STARLINK-4092,PAYLOAD,2022-07-05 22:00:00,15.73219936,0.0001751,53.215,313.8635,33.6868,34.3652,-0.00039188,-0.00055308,0.0,0 STARLINK-4092,1 52838U 22062J   22186.91667824 -.00055308  00000-0 -39188-3 0  9995,2 52838  53.2150 313.8635 0001751  33.6868  34.3652 15.73219936  1304,6727.8380000000025,91.532,350.881,348.525,0.0
52838.0,STARLINK-4092,PAYLOAD,2022-07-06 06:00:00,15.7315967,0.0001665999999999,53.2153,312.212,41.913,115.0674,0.00054365,0.00076242,0.0,0 STARLINK-4092,1 52838U 22062J   22187.25001157  .00076242  00000-0  54365-3 0  9996,2 52838  53.2153 312.2120 0001666  41.9130 115.0674 15.73159670  3444,6728.01,91.536,350.996,348.754,0.0
52838.0,STARLINK-4092,PAYLOAD,2022-07-06 14:00:01,15.73220504,0.0001877,53.2156,310.5641,37.8281,208.0639,-4.833e-05,-7.404e-05,0.0,0 STARLINK-4092,1 52838U 22062J   22187.58334491 -.00007404  00000-0 -48330-4 0  9994,2 52838  53.2156 310.5641 0001877  37.8281 208.0639 15.73220504  1303,6727.837,91.532,350.965,348.439,0.0
52838.0,STARLINK-4092,PAYLOAD,2022-07-06 22:00:00,15.73269587,0.0001887,53.2159,308.9148,32.2836,302.5493,-0.0014145999999999,-0.00195213,0.0,0 STARLINK-4092,1 52838U 22062J   22187.91667824 -.00195213  00000-0 -14146-2 0  9992,2 52838  53.2159 308.9148 0001887  32.2836 302.5493 15.73269587  3556,6727.696999999999,91.529,350.831,348.292,0.0
52838.0,STARLINK-4092,PAYLOAD,2022-07-07 04:12:22,15.732032,0.0001972,53.2156,307.6342,36.2678,323.8475,3.5e-05,4.294e-05,0.0,0 STARLINK-4092,1 52838U 22062J   22188.17525477  .00004294  00000-0  35000-4 0  9998,2 52838  53.2156 307.6342 0001972  36.2678 323.8475 15.73203200  3598,6727.886,91.533,351.07800000000015,348.4240000000001,0.0
52838.0,STARLINK-4092,PAYLOAD,2022-07-07 13:21:14,15.73223492,0.0002113,53.2153,305.7478,37.4032,322.7135,0.0001564,0.00021408,0.0,0 STARLINK-4092,1 52838U 22062J   22188.55642174  .00021408  00000-0  15640-3 0  9997,2 52838  53.2153 305.7478 0002113  37.4032 322.7135 15.73223492  3168,6727.828,91.532,351.115,348.272,0.0
52838.0,STARLINK-4092,PAYLOAD,2022-07-07 20:58:38,15.7323288,0.0002411,53.2154,304.1758,32.149,327.9677,0.00024477,0.00033921,0.0,0 STARLINK-4092,1 52838U 22062J   22188.87405984  .00033921  00000-0  24477-3 0  9999,2 52838  53.2154 304.1758 0002411  32.1490 327.9677 15.73232880  3219,6727.801,91.531,351.289,348.0440000000001,0.0
52838.0,STARLINK-4092,PAYLOAD,2022-07-08 06:00:02,15.73210203,0.0001911,53.2154,302.314,37.8415,292.8622,0.00069873,0.00098647,0.0,0 STARLINK-4092,1 52838U 22062J   22189.25002315  .00098647  00000-0  69873-3 0  9998,2 52838  53.2154 302.3140 0001911  37.8415 292.8622 15.73210203  3762,6727.866,91.533,351.017,348.445,0.0
52838.0,STARLINK-4092,PAYLOAD,2022-07-08 14:00:01,15.73325544,0.0002121,53.2154,300.6664,32.1066,27.5445,-0.00039292,-0.00055704,0.0,0 STARLINK-4092,1 52838U 22062J   22189.58334491 -.00055704  00000-0 -39292-3 0  9998,2 52838  53.2154 300.6664 0002121  32.1066  27.5445 15.73325544  1307,6727.5369999999975,91.526,350.829,347.975,0.0
52838.0,STARLINK-4092,PAYLOAD,2022-07-08 22:00:01,15.73319474,0.0002108,53.215,299.0161,29.8229,118.9168,-0.00076799,-0.00107596,0.0,0 STARLINK-4092,1 52838U 22062J   22189.91668981 -.00107596  00000-0 -76799-3 0  9999,2 52838  53.2150 299.0161 0002108  29.8229 118.9168 15.73319474  3860,6727.555,91.526,350.838,348.001,0.0
52838.0,STARLINK-4092,PAYLOAD,2022-07-09 06:00:00,15.73177545,0.000182,53.2153,297.3646,34.1911,203.3706,-0.00014186,-0.00020463,0.0,0 STARLINK-4092,1 52838U 22062J   22190.25001157 -.00020463  00000-0 -14186-3 0  9993,2 52838  53.2153 297.3646 0001820  34.1911 203.3706 15.73177545  3924,6727.959,91.534,351.0490000000001,348.6,0.0
52838.0,STARLINK-4092,PAYLOAD,2022-07-09 14:00:01,15.72950987,0.0002205,53.2166,295.7169,37.296,289.2193,0.0012059,0.00170274,0.0,0 STARLINK-4092,1 52838U 22062J   22190.58334491  .00170274  00000-0  12059-2 0  9999,2 52838  53.2166 295.7169 0002205  37.2960 289.2193 15.72950987  1307,6728.605,91.548,351.954,348.987,0.0
52838.0,STARLINK-4092,PAYLOAD,2022-07-09 16:00:00,15.72814998,0.0002149,53.2169,295.3051,35.4797,43.2542,0.0036507,0.00536991,0.0,0 STARLINK-4092,1 52838U 22062J   22190.66667824  .00536991  00000-0  36507-2 0  9993,2 52838  53.2169 295.3051 0002149  35.4797  43.2542 15.72814998  3984,6728.993,91.556,352.30400000000014,349.412,0.0
52838.0,STARLINK-4092,PAYLOAD,2022-07-09 20:00:01,15.73150388,0.0002115,53.2151,294.4805,21.7638,281.394,0.00027709,0.00038364,0.0,0 STARLINK-4092,1 52838U 22062J   22190.83334491  .00038364  00000-0  27709-3 0  9999,2 52838  53.2151 294.4805 0002115  21.7638 281.3940 15.73150388  1305,6728.0369999999975,91.536,351.325,348.47900000000016,0.0
52838.0,STARLINK-4092,PAYLOAD,2022-07-10 06:00:00,15.72883887,0.0001964,53.2167,292.4151,32.7596,111.5742,0.0029008,0.00421887,0.0,0 STARLINK-4092,1 52838U 22062J   22191.25001157  .00421887  00000-0  29008-2 0  9995,2 52838  53.2167 292.4151 0001964  32.7596 111.5742 15.72883887  4077,6728.797,91.552,351.983,349.34,0.0
52838.0,STARLINK-4092,PAYLOAD,2022-07-10 14:00:01,15.73204289,0.000227,53.2175,290.7685,31.6219,201.4232,-9.9125e-07,-7.61e-06,0.0,0 STARLINK-4092,1 52838U 22062J   22191.58334491 -.00000761  00000-0 -99125-6 0  9998,2 52838  53.2175 290.7685 0002270  31.6219 201.4232 15.73204289  4134,6727.8830000000025,91.533,351.275,348.221,0.0
52838.0,STARLINK-4092,PAYLOAD,2022-07-10 22:00:00,15.73205223,0.0002222,53.2173,289.118,30.9418,291.0379,-1.3988e-05,-2.585e-05,0.0,0 STARLINK-4092,1 52838U 22062J   22191.91667824 -.00002585  00000-0 -13988-4 0  9991,2 52838  53.2173 289.1180 0002222  30.9418 291.0379 15.73205223  1306,6727.88,91.533,351.24,348.25,0.0
52838.0,STARLINK-4092,PAYLOAD,2022-07-11 06:00:00,15.7322636,0.0002063,53.2157,287.468,23.6143,27.4843,-0.00025151,-0.00035812,0.0,0 STARLINK-4092,1 52838U 22062J   22192.25001157 -.00035812  00000-0 -25151-3 0  9993,2 52838  53.2157 287.4680 0002063  23.6143  27.4843 15.73226360  4238,6727.82,91.532,351.0730000000001,348.297,0.0
52838.0,STARLINK-4092,PAYLOAD,2022-07-11 14:00:01,15.73216435,0.0002356,53.2156,285.8206,21.8166,118.2254,-0.00034394,-0.00048653,0.0,0 STARLINK-4092,1 52838U 22062J   22192.58334491 -.00048653  00000-0 -34394-3 0  9995,2 52838  53.2156 285.8206 0002356  21.8166 118.2254 15.73216435  1305,6727.848000000001,91.532,351.298,348.12800000000016,0.0
52838.0,STARLINK-4092,PAYLOAD,2022-07-11 22:00:00,15.73177273,0.0002288,53.2155,284.1702,18.0942,210.8838,-2.3396e-05,-3.901e-05,0.0,0 STARLINK-4092,1 52838U 22062J   22192.91667824 -.00003901  00000-0 -23396-4 0  9999,2 52838  53.2155 284.1702 0002288  18.0942 210.8838 15.73177273  1304,6727.96,91.535,351.36400000000015,348.286,0.0
52838.0,STARLINK-4092,PAYLOAD,2022-07-12 06:00:00,15.73215193,0.0002239,53.2161,282.5196,21.932,295.9473,-0.00019083,-0.00027337,0.0,0 STARLINK-4092,1 52838U 22062J   22193.25001157 -.00027337  00000-0 -19083-3 0  9994,2 52838  53.2161 282.5196 0002239  21.9320 295.9473 15.73215193  4394,6727.852,91.532,351.223,348.21,0.0
52838.0,STARLINK-4092,PAYLOAD,2022-07-12 14:00:01,15.73174387,0.0002609,53.216,280.8723,23.3676,23.4639,0.00044729,0.0006256,0.0,0 STARLINK-4092,1 52838U 22062J   22193.58334491  .00062560  00000-0  44729-3 0  9990,2 52838  53.2160 280.8723 0002609  23.3676  23.4639 15.73174387  1306,6727.968000000003,91.535,351.589,348.07800000000015,0.0
52838.0,STARLINK-4092,PAYLOAD,2022-07-12 22:00:00,15.73275609,0.0002543,53.2155,279.2217,22.0658,113.6927,-0.00037321,-0.0005285,0.0,0 STARLINK-4092,1 52838U 22062J   22193.91667824 -.00052850  00000-0 -37321-3 0  9999,2 52838  53.2155 279.2217 0002543  22.0658 113.6927 15.73275609  4497,6727.68,91.529,351.255,347.834,0.0
52838.0,STARLINK-4092,PAYLOAD,2022-07-13 14:00:01,15.73184405,0.000264,53.2153,275.9242,19.8925,293.8021,-0.00042866,-0.00060323,0.0,0 STARLINK-4092,1 52838U 22062J   22194.58334491 -.00060323  00000-0 -42866-3 0  9998,2 52838  53.2153 275.9242 0002640  19.8925 293.8021 15.73184405  4607,6727.94,91.534,351.581,348.028,0.0
52838.0,STARLINK-4092,PAYLOAD,2022-07-13 22:00:00,15.73137015,0.0002485,53.2153,274.2735,14.6439,27.9378,-0.00023259,-0.00033053,0.0,0 STARLINK-4092,1 52838U 22062J   22194.91667824 -.00033053  00000-0 -23259-3 0  9999,2 52838  53.2153 274.2735 0002485  14.6439  27.9378 15.73137015  1306,6728.075,91.537,351.612,348.26800000000014,0.0
